{
  "type": "FeatureCollection",
  "features": [
    {
      "type": "Feature",
      "properties": {
        "norad_id": 66561,
        "name": "STARLINK-35305",
        "group": "last-30-days",
        "lat": 31.25976766966217,
        "lon": -178.3184082733587,
        "alt_km": 430.1780863729846,
        "timestamp": "2025-12-26T04:40:04.508932+00:00",
        "meta_object_name": "STARLINK-35305",
        "meta_object_id": "2025-268E",
        "meta_epoch": "2025-12-25T22:00:01.999584",
        "meta_mean_motion": 15.45174174,
        "meta_eccentricity": 0.00012985,
        "meta_inclination": 43.0013,
        "meta_ra_of_asc_node": 43.9404,
        "meta_arg_of_pericenter": 269.2032,
        "meta_mean_anomaly": 114.6286,
        "meta_ephemeris_type": 0,
        "meta_classification_type": "U",
        "meta_norad_cat_id": 66561,
        "meta_element_set_no": 999,
        "meta_rev_at_epoch": 607,
        "meta_bstar": -0.046552708,
        "meta_mean_motion_dot": -0.02014715,
        "meta_mean_motion_ddot": 0,
        "tle_line1": "1 66561U 25268E   25359.91668981 -.02014715  00000+0 -46553-1 0  9994",
        "tle_line2": "2 66561  43.0013  43.9404 0001298 269.2032 114.6286 15.45174174  6075"
      },
      "geometry": {
        "type": "Point",
        "coordinates": [
          -178.3184082733587,
          31.25976766966217
        ]
      }
    },
    {
      "type": "Feature",
      "properties": {
        "norad_id": 66562,
        "name": "STARLINK-35579",
        "group": "last-30-days",
        "lat": 36.24743456947008,
        "lon": 170.4727954639872,
        "alt_km": 432.0726843271632,
        "timestamp": "2025-12-26T04:40:04.508943+00:00",
        "meta_object_name": "STARLINK-35579",
        "meta_object_id": "2025-268F",
        "meta_epoch": "2025-12-25T22:00:01.999584",
        "meta_mean_motion": 15.4435823,
        "meta_eccentricity": 0.00014511,
        "meta_inclination": 43.0011,
        "meta_ra_of_asc_node": 43.964,
        "meta_arg_of_pericenter": 266.802,
        "meta_mean_anomaly": 107.3016,
        "meta_ephemeris_type": 0,
        "meta_classification_type": "U",
        "meta_norad_cat_id": 66562,
        "meta_element_set_no": 999,
        "meta_rev_at_epoch": 607,
        "meta_bstar": -0.049483346,
        "meta_mean_motion_dot": -0.02074668,
        "meta_mean_motion_ddot": 0,
        "tle_line1": "1 66562U 25268F   25359.91668981 -.02074668  00000+0 -49483-1 0  9993",
        "tle_line2": "2 66562  43.0011  43.9640 0001451 266.8020 107.3016 15.44358230  6073"
      },
      "geometry": {
        "type": "Point",
        "coordinates": [
          170.4727954639872,
          36.24743456947008
        ]
      }
    },
    {
      "type": "Feature",
      "properties": {
        "norad_id": 66563,
        "name": "STARLINK-35437",
        "group": "last-30-days",
        "lat": 25.732909124517608,
        "lon": -168.8400319997666,
        "alt_km": 428.4947712401936,
        "timestamp": "2025-12-26T04:40:04.508954+00:00",
        "meta_object_name": "STARLINK-35437",
        "meta_object_id": "2025-268G",
        "meta_epoch": "2025-12-25T22:00:01.999584",
        "meta_mean_motion": 15.46021376,
        "meta_eccentricity": 0.00014089,
        "meta_inclination": 43.0008,
        "meta_ra_of_asc_node": 43.9178,
        "meta_arg_of_pericenter": 264.9675,
        "meta_mean_anomaly": 128.0256,
        "meta_ephemeris_type": 0,
        "meta_classification_type": "U",
        "meta_norad_cat_id": 66563,
        "meta_element_set_no": 999,
        "meta_rev_at_epoch": 607,
        "meta_bstar": -0.045940979,
        "meta_mean_motion_dot": -0.02043959,
        "meta_mean_motion_ddot": 0,
        "tle_line1": "1 66563U 25268G   25359.91668981 -.02043959  00000+0 -45941-1 0  9998",
        "tle_line2": "2 66563  43.0008  43.9178 0001408 264.9675 128.0256 15.46021376  6079"
      },
      "geometry": {
        "type": "Point",
        "coordinates": [
          -168.8400319997666,
          25.732909124517608
        ]
      }
    },
    {
      "type": "Feature",
      "properties": {
        "norad_id": 66564,
        "name": "STARLINK-35358",
        "group": "last-30-days",
        "lat": 19.99792764942987,
        "lon": -160.7060748589254,
        "alt_km": 426.9593944341077,
        "timestamp": "2025-12-26T04:40:04.508968+00:00",
        "meta_object_name": "STARLINK-35358",
        "meta_object_id": "2025-268H",
        "meta_epoch": "2025-12-25T22:00:01.999584",
        "meta_mean_motion": 15.46866904,
        "meta_eccentricity": 0.00014983,
        "meta_inclination": 43.0007,
        "meta_ra_of_asc_node": 43.8964,
        "meta_arg_of_pericenter": 271.3385,
        "meta_mean_anomaly": 130.2549,
        "meta_ephemeris_type": 0,
        "meta_classification_type": "U",
        "meta_norad_cat_id": 66564,
        "meta_element_set_no": 999,
        "meta_rev_at_epoch": 601,
        "meta_bstar": -0.045023105,
        "meta_mean_motion_dot": -0.02061019,
        "meta_mean_motion_ddot": 0,
        "tle_line1": "1 66564U 25268H   25359.91668981 -.02061019  00000+0 -45023-1 0  9997",
        "tle_line2": "2 66564  43.0007  43.8964 0001498 271.3385 130.2549 15.46866904  6018"
      },
      "geometry": {
        "type": "Point",
        "coordinates": [
          -160.7060748589254,
          19.99792764942987
        ]
      }
    },
    {
      "type": "Feature",
      "properties": {
        "norad_id": 66565,
        "name": "STARLINK-35893",
        "group": "last-30-days",
        "lat": 14.287954916537712,
        "lon": -153.6010753151845,
        "alt_km": 425.2590374984211,
        "timestamp": "2025-12-26T04:40:04.508978+00:00",
        "meta_object_name": "STARLINK-35893",
        "meta_object_id": "2025-268J",
        "meta_epoch": "2025-12-25T22:00:01.999584",
        "meta_mean_motion": 15.47691389,
        "meta_eccentricity": 0.00012593,
        "meta_inclination": 43.0006,
        "meta_ra_of_asc_node": 43.8759,
        "meta_arg_of_pericenter": 274.507,
        "meta_mean_anomaly": 135.1355,
        "meta_ephemeris_type": 0,
        "meta_classification_type": "U",
        "meta_norad_cat_id": 66565,
        "meta_element_set_no": 999,
        "meta_rev_at_epoch": 607,
        "meta_bstar": -0.04370657,
        "meta_mean_motion_dot": -0.0205952,
        "meta_mean_motion_ddot": 0,
        "tle_line1": "1 66565U 25268J   25359.91668981 -.02059520  00000+0 -43707-1 0  9999",
        "tle_line2": "2 66565  43.0006  43.8759 0001259 274.5070 135.1355 15.47691389  6070"
      },
      "geometry": {
        "type": "Point",
        "coordinates": [
          -153.6010753151845,
          14.287954916537712
        ]
      }
    },
    {
      "type": "Feature",
      "properties": {
        "norad_id": 66566,
        "name": "STARLINK-35871",
        "group": "last-30-days",
        "lat": 10.284626400641939,
        "lon": -148.984491146975,
        "alt_km": 424.1872806479405,
        "timestamp": "2025-12-26T04:40:04.508991+00:00",
        "meta_object_name": "STARLINK-35871",
        "meta_object_id": "2025-268K",
        "meta_epoch": "2025-12-25T22:00:01.999584",
        "meta_mean_motion": 15.48223024,
        "meta_eccentricity": 0.00012514,
        "meta_inclination": 43.0003,
        "meta_ra_of_asc_node": 43.862,
        "meta_arg_of_pericenter": 273.2588,
        "meta_mean_anomaly": 141.8891,
        "meta_ephemeris_type": 0,
        "meta_classification_type": "U",
        "meta_norad_cat_id": 66566,
        "meta_element_set_no": 999,
        "meta_rev_at_epoch": 607,
        "meta_bstar": -0.042893314,
        "meta_mean_motion_dot": -0.02059456,
        "meta_mean_motion_ddot": 0,
        "tle_line1": "1 66566U 25268K   25359.91668981 -.02059456  00000+0 -42893-1 0  9993",
        "tle_line2": "2 66566  43.0003  43.8620 0001251 273.2588 141.8891 15.48223024  6074"
      },
      "geometry": {
        "type": "Point",
        "coordinates": [
          -148.984491146975,
          10.284626400641939
        ]
      }
    },
    {
      "type": "Feature",
      "properties": {
        "norad_id": 66567,
        "name": "STARLINK-35825",
        "group": "last-30-days",
        "lat": -16.26506457984545,
        "lon": -119.61018867388981,
        "alt_km": 398.6111982390121,
        "timestamp": "2025-12-26T04:40:04.509002+00:00",
        "meta_object_name": "STARLINK-35825",
        "meta_object_id": "2025-268L",
        "meta_epoch": "2025-12-24T05:35:52.806912",
        "meta_mean_motion": 15.56426808,
        "meta_eccentricity": 0.00033868,
        "meta_inclination": 43.0005,
        "meta_ra_of_asc_node": 53.7242,
        "meta_arg_of_pericenter": 293.6521,
        "meta_mean_anomaly": 66.3986,
        "meta_ephemeris_type": 0,
        "meta_classification_type": "U",
        "meta_norad_cat_id": 66567,
        "meta_element_set_no": 999,
        "meta_rev_at_epoch": 641,
        "meta_bstar": 0.0017686293,
        "meta_mean_motion_dot": 0.00130148,
        "meta_mean_motion_ddot": 0,
        "tle_line1": "1 66567U 25268L   25358.23325008  .00130148  00000+0  17686-2 0  9995",
        "tle_line2": "2 66567  43.0005  53.7242 0003386 293.6521  66.3986 15.56426808  6419"
      },
      "geometry": {
        "type": "Point",
        "coordinates": [
          -119.61018867388981,
          -16.26506457984545
        ]
      }
    }
  ]
}